STARLINK-4091           
1 52830U 22062A   26068.31957040 -.00001626  00000+0 -84085-4 0  9996
2 52830  53.2163  35.9739 0001524  91.0813 269.0354 15.08840490205724
LEMUR-2-STELLA          
1 60533U 24149BT  26068.72657350  .00013685  00000+0  85776-3 0  9992
2 60533  97.6764 150.9122 0001299  95.1117 265.0260 15.09464064 85488
